NORAD_CAT_ID,OBJECT_NAME,OBJECT_TYPE,EPOCH,MEAN_MOTION,ECCENTRICITY,INCLINATION,RA_OF_ASC_NODE,ARG_OF_PERICENTER,MEAN_ANOMALY,BSTAR,MEAN_MOTION_DOT,MEAN_MOTION_DDOT,TLE_LINE0,TLE_LINE1,TLE_LINE2,SEMIMAJOR_AXIS,PERIOD,APOGEE,PERIGEE,DECAYED
53887.0,STARLINK-5029,PAYLOAD,2024-04-21 09:17:19,15.08819552,0.0001973,53.2176,169.6565,120.3446,239.7742,-0.00021615,-3.725e-05,0.0,0 STARLINK-5029,1 53887U 22119B   24112.38703534 -.00003725  00000-0 -21615-3 0  9996,2 53887  53.2176 169.6565 0001973 120.3446 239.7742 15.08819552 87929,6917.943,95.439,541.173,538.443,0.0
53887.0,STARLINK-5029,PAYLOAD,2024-04-22 09:08:04,15.08866131,0.0001735,53.2179,165.1927,104.8269,255.2916,0.00029147,4.357e-05,0.0,0 STARLINK-5029,1 53887U 22119B   24113.38060488  .00004357  00000-0  29147-3 0  9999,2 53887  53.2179 165.1927 0001735 104.8269 255.2916 15.08866131 87652,6917.801,95.436,540.866,538.465,0.0
53887.0,STARLINK-5029,PAYLOAD,2024-04-23 10:34:16,15.0883089,0.0001642,53.2173,160.4341,104.9088,255.2086,0.0002123,3.092e-05,0.0,0 STARLINK-5029,1 53887U 22119B   24114.44047369  .00003092  00000-0  21230-3 0  9990,2 53887  53.2173 160.4341 0001642 104.9088 255.2086 15.08830890 87810,6917.908,95.438,540.909,538.637,0.0
53887.0,STARLINK-5029,PAYLOAD,2024-04-24 02:28:08,15.08790624,0.0002062,53.2171,157.4658,104.8799,255.2421,0.00066564,0.00010307,0.0,0 STARLINK-5029,1 53887U 22119B   24115.10287310  .00010307  00000-0  66564-3 0  9992,2 53887  53.2171 157.4658 0002062 104.8799 255.2421 15.08790624 87914,6918.031,95.441,541.323,538.47,0.0
53887.0,STARLINK-5029,PAYLOAD,2024-04-24 12:00:27,15.08808107,0.0001964,53.2168,155.6789,102.9539,257.1673,0.00062382,9.645e-05,0.0,0 STARLINK-5029,1 53887U 22119B   24115.50031320  .00009645  00000-0  62382-3 0  9991,2 53887  53.2168 155.6789 0001964 102.9539 257.1673 15.08808107 87978,6917.978,95.44,541.202,538.484,0.0
53887.0,STARLINK-5029,PAYLOAD,2024-04-25 02:18:54,15.08836565,0.0001591,53.2167,153.0016,82.3267,277.7905,9.8916e-05,1.286e-05,0.0,0 STARLINK-5029,1 53887U 22119B   24116.09646890  .00001286  00000-0  98916-4 0  9996,2 53887  53.2167 153.0016 0001591  82.3267 277.7905 15.08836565 88063,6917.891,95.438,540.857,538.655,0.0
53887.0,STARLINK-5029,PAYLOAD,2024-04-25 08:40:27,15.08840988,0.0001561,53.2167,151.8129,96.1414,263.9756,8.9169e-05,1.131e-05,0.0,0 STARLINK-5029,1 53887U 22119B   24116.36142602  .00001131  00000-0  89169-4 0  9997,2 53887  53.2167 151.8129 0001561  96.1414 263.9756 15.08840988 88524,6917.877,95.437,540.822,538.662,0.0
53887.0,STARLINK-5029,PAYLOAD,2024-04-26 08:31:13,15.08848729,0.0001406,53.2162,147.3523,95.7135,264.4017,9.3303e-05,1.198e-05,0.0,0 STARLINK-5029,1 53887U 22119B   24117.35501864  .00001198  00000-0  93303-4 0  9994,2 53887  53.2162 147.3523 0001406  95.7135 264.4017 15.08848729 88257,6917.854,95.437,540.691,538.746,0.0
53887.0,STARLINK-5029,PAYLOAD,2024-04-27 11:32:44,15.08873262,0.0001416,53.2167,142.2955,93.2536,266.8618,0.00025388,3.758e-05,0.0,0 STARLINK-5029,1 53887U 22119B   24118.48107207  .00003758  00000-0  25388-3 0  9993,2 53887  53.2167 142.2955 0001416  93.2536 266.8618 15.08873262 88426,6917.779,95.435,540.623,538.664,0.0
53887.0,STARLINK-5029,PAYLOAD,2024-04-28 11:23:35,15.08824265,0.0001405,53.2165,137.8354,103.4537,256.6612,-0.00014661,-2.619e-05,0.0,0 STARLINK-5029,1 53887U 22119B   24119.47471451 -.00002619  00000-0 -14661-3 0  9997,2 53887  53.2165 137.8354 0001405 103.4537 256.6612 15.08824265 88576,6917.928,95.439,540.765,538.822,0.0
53887.0,STARLINK-5029,PAYLOAD,2024-04-28 17:45:07,15.08825924,0.0001417,53.2166,136.6467,104.6184,255.4965,-0.00011529,-2.122e-05,0.0,0 STARLINK-5029,1 53887U 22119B   24119.73967443 -.00002122  00000-0 -11529-3 0  9996,2 53887  53.2166 136.6467 0001417 104.6184 255.4965 15.08825924 89036,6917.923,95.438,540.769,538.808,0.0
53887.0,STARLINK-5029,PAYLOAD,2024-04-29 04:52:49,15.08840528,0.0001225,53.2169,134.5642,100.8793,259.2337,-0.0002156,-3.718e-05,0.0,0 STARLINK-5029,1 53887U 22119B   24120.20335234 -.00003718  00000-0 -21560-3 0  9995,2 53887  53.2169 134.5642 0001225 100.8793 259.2337 15.08840528 88684,6917.879,95.438,540.591,538.896,0.0
53887.0,STARLINK-5029,PAYLOAD,2024-04-29 09:38:58,15.08841356,0.000121,53.2167,133.6726,102.6477,257.4651,-0.00018554,-3.24e-05,0.0,0 STARLINK-5029,1 53887U 22119B   24120.40207090 -.00003240  00000-0 -18554-3 0  9994,2 53887  53.2167 133.6726 0001210 102.6477 257.4651 15.08841356 89138,6917.876,95.437,540.578,538.904,0.0
53887.0,STARLINK-5029,PAYLOAD,2024-04-29 17:35:54,15.08842622,0.0001197,53.2166,132.1858,103.5385,256.574,-0.00016358,-2.89e-05,0.0,0 STARLINK-5029,1 53887U 22119B   24120.73326953 -.00002890  00000-0 -16358-3 0  9990,2 53887  53.2166 132.1858 0001197 103.5385 256.5740 15.08842622 89180,6917.872,95.437,540.565,538.909,0.0
53887.0,STARLINK-5029,PAYLOAD,2024-04-30 07:54:23,15.08826461,0.0001214,53.2164,129.5094,111.0232,249.089,0.00020196,2.927e-05,0.0,0 STARLINK-5029,1 53887U 22119B   24121.32943741  .00002927  00000-0  20196-3 0  9990,2 53887  53.2164 129.5094 0001214 111.0232 249.0890 15.08826461 88854,6917.922,95.438,540.627,538.947,0.0
53887.0,STARLINK-5029,PAYLOAD,2024-04-30 17:26:42,15.08832961,0.0001212,53.2163,127.7252,111.1731,248.9391,0.00020948,3.047e-05,0.0,0 STARLINK-5029,1 53887U 22119B   24121.72687673  .00003047  00000-0  20948-3 0  9992,2 53887  53.2163 127.7252 0001212 111.1731 248.9391 15.08832961 89332,6917.902,95.438,540.605,538.928,0.0
53887.0,STARLINK-5029,PAYLOAD,2024-05-01 04:34:23,15.08841077,0.0001238,53.2166,125.6439,112.9953,247.117,0.00020876,3.036e-05,0.0,0 STARLINK-5029,1 53887U 22119B   24122.19055377  .00003036  00000-0  20876-3 0  9992,2 53887  53.2166 125.6439 0001238 112.9953 247.1170 15.08841077 88986,6917.877,95.437,540.599,538.886,0.0
53887.0,STARLINK-5029,PAYLOAD,2024-05-01 09:20:33,15.08845727,0.0001213,53.2164,124.7513,112.3319,247.7802,0.00021,3.056e-05,0.0,0 STARLINK-5029,1 53887U 22119B   24122.38927094  .00003056  00000-0  21000-3 0  9999,2 53887  53.2164 124.7513 0001213 112.3319 247.7802 15.08845727 89435,6917.863,95.437,540.567,538.889,0.0
53887.0,STARLINK-5029,PAYLOAD,2024-05-01 17:17:28,15.08844431,0.0001125,53.2161,123.2638,110.146,249.9653,0.00015993,2.259e-05,0.0,0 STARLINK-5029,1 53887U 22119B   24122.72047213  .00002259  00000-0  15993-3 0  9991,2 53887  53.2161 123.2638 0001125 110.1460 249.9653 15.08844431 89483,6917.867,95.437,540.51,538.954,0.0
53887.0,STARLINK-5029,PAYLOAD,2024-05-02 09:11:20,15.08847134,0.000121,53.216,120.2895,109.6322,250.48,0.00010708,1.417e-05,0.0,0 STARLINK-5029,1 53887U 22119B   24123.38287051  .00001417  00000-0  10708-3 0  9994,2 53887  53.2160 120.2895 0001210 109.6322 250.4800 15.08847134 89168,6917.859,95.437,540.561,538.887,0.0
53887.0,STARLINK-5029,PAYLOAD,2024-05-03 09:02:06,15.08847411,0.0001248,53.2151,115.829,106.5752,253.5378,3.2065e-05,2.23e-06,0.0,0 STARLINK-5029,1 53887U 22119B   24124.37646788  .00000223  00000-0  32065-4 0  9995,2 53887  53.2151 115.8290 0001248 106.5752 253.5378 15.08847411 89736,6917.858,95.437,540.586,538.859,0.0
53887.0,STARLINK-5029,PAYLOAD,2024-05-03 16:59:02,15.08839665,0.000122,53.2148,114.3415,107.3558,252.7568,-1.0612e-06,-3.05e-06,0.0,0 STARLINK-5029,1 53887U 22119B   24124.70767253 -.00000305  00000-0 -10612-5 0  9991,2 53887  53.2148 114.3415 0001220 107.3558 252.7568 15.08839665 89361,6917.881,95.438,540.59,538.902,0.0
53887.0,STARLINK-5029,PAYLOAD,2024-05-04 08:52:54,15.08834586,0.000126,53.2164,111.369,101.8622,258.2511,-3.8648e-05,-9.03e-06,0.0,0 STARLINK-5029,1 53887U 22119B   24125.37007794 -.00000903  00000-0 -38648-4 0  9994,2 53887  53.2164 111.3690 0001260 101.8622 258.2511 15.08834586 89463,6917.897,95.438,540.634,538.89,0.0
53887.0,STARLINK-5029,PAYLOAD,2024-05-05 05:32:54,15.08846456,0.0001253,53.2171,107.504,95.3046,264.809,5.1439e-05,5.31e-06,0.0,0 STARLINK-5029,1 53887U 22119B   24126.23118859  .00000531  00000-0  51439-4 0  9993,2 53887  53.2171 107.5040 0001253  95.3046 264.8090 15.08846456 89594,6917.861,95.437,540.592,538.859,0.0
53887.0,STARLINK-5029,PAYLOAD,2024-05-05 08:43:40,15.08852899,0.0001288,53.2171,106.9093,94.1248,265.9892,-1.8066e-05,-5.76e-06,0.0,0 STARLINK-5029,1 53887U 22119B   24126.36366706 -.00000576  00000-0 -18066-4 0  9993,2 53887  53.2171 106.9093 0001288  94.1248 265.9892 15.08852899 90035,6917.841,95.437,540.597,538.815,0.0
53887.0,STARLINK-5029,PAYLOAD,2024-05-05 23:02:10,15.08830326,0.0001215,53.2165,104.2328,93.2821,266.831,6.1553e-05,6.92e-06,0.0,0 STARLINK-5029,1 53887U 22119B   24126.95984003  .00000692  00000-0  61553-4 0  9990,2 53887  53.2165 104.2328 0001215  93.2821 266.8310 15.08830326 90123,6917.91,95.438,540.615,538.934,0.0
53887.0,STARLINK-5029,PAYLOAD,2024-05-06 03:48:19,15.08830282,0.0001218,53.2167,103.3408,93.2052,266.9079,5.6845e-05,6.17e-06,0.0,0 STARLINK-5029,1 53887U 22119B   24127.15856157  .00000617  00000-0  56845-4 0  9996,2 53887  53.2167 103.3408 0001218  93.2052 266.9079 15.08830282 89732,6917.91,95.438,540.618,538.932,0.0
53887.0,STARLINK-5029,PAYLOAD,2024-05-06 14:56:01,15.08839121,0.0001213,53.217,101.2591,92.3592,267.7539,8.1547e-05,1.01e-05,0.0,0 STARLINK-5029,1 53887U 22119B   24127.62223701  .00001010  00000-0  81547-4 0  9996,2 53887  53.2170 101.2591 0001213  92.3592 267.7539 15.08839121 89809,6917.883,95.438,540.587,538.909,0.0
53887.0,STARLINK-5029,PAYLOAD,2024-05-07 05:14:28,15.08851642,0.0001192,53.217,98.5828,91.0987,269.0142,0.00010543,1.391e-05,0.0,0 STARLINK-5029,1 53887U 22119B   24128.21838721  .00001391  00000-0  10543-3 0  9995,2 53887  53.2170  98.5828 0001192  91.0987 269.0142 15.08851642 89896,6917.845,95.437,540.534,538.885,0.0
53887.0,STARLINK-5029,PAYLOAD,2024-05-07 06:49:51,15.08852528,0.0001215,53.2172,98.2854,90.9599,269.1532,0.00011384,1.525e-05,0.0,0 STARLINK-5029,1 53887U 22119B   24128.28462620  .00001525  00000-0  11384-3 0  9996,2 53887  53.2172  98.2854 0001215  90.9599 269.1532 15.08852528 90325,6917.842,95.437,540.548,538.867,0.0
